{"type":"FeatureCollection","features":[{"type":"Feature","id":"node/1670669903","properties":{"bus":"yes","highway":"bus_stop","name":"B00755 Tourist Club Area 9 st Al Armook School: 008, 011","name:en":"B00755 Tourist Club Area 9 st Al Armook School: 008, 011","public_transport":"platform","id":"node/1670669903"},"geometry":{"type":"Point","coordinates":[54.3732905,24.4890817]}},{"type":"Feature","id":"node/1670682965","properties":{"highway":"bus_stop","id":"node/1670682965"},"geometry":{"type":"Point","coordinates":[54.3665459,24.4881339]}},{"type":"Feature","id":"node/1670682969","properties":{"highway":"bus_stop","name":"Libe city drop","id":"node/1670682969"},"geometry":{"type":"Point","coordinates":[54.3684585,24.4894836]}},{"type":"Feature","id":"node/1670682973","properties":{"highway":"bus_stop","id":"node/1670682973"},"geometry":{"type":"Point","coordinates":[54.3713682,24.4888642]}},{"type":"Feature","id":"node/1670682975","properties":{"highway":"bus_stop","id":"node/1670682975"},"geometry":{"type":"Point","coordinates":[54.3706785,24.4891833]}},{"type":"Feature","id":"node/1670682989","properties":{"bus":"yes","highway":"bus_stop","name":"9th Street At Yarmook School","name:en":"9th Street At Yarmook School","public_transport":"platform","id":"node/1670682989"},"geometry":{"type":"Point","coordinates":[54.3734696,24.4888735]}},{"type":"Feature","id":"node/1670682992","properties":{"highway":"bus_stop","name:en":"Bus stop 34","shelter":"no","id":"node/1670682992"},"geometry":{"type":"Point","coordinates":[54.3631187,24.4856894]}},{"type":"Feature","id":"node/2699649152","properties":{"highway":"bus_stop","name":"94","id":"node/2699649152"},"geometry":{"type":"Point","coordinates":[54.366066,24.4856218]}},{"type":"Feature","id":"node/2699649153","properties":{"bench":"no","bus":"yes","highway":"bus_stop","name":"Sultan Bin Zayed St / Madinat Shopping Centre","public_transport":"platform","ref":"405B","shelter":"yes","id":"node/2699649153"},"geometry":{"type":"Point","coordinates":[54.3657826,24.48532]}},{"type":"Feature","id":"node/3048782645","properties":{"bus":"yes","highway":"bus_stop","note":"Bus No.s: 05, 54","public_transport":"platform","shelter":"no","id":"node/3048782645"},"geometry":{"type":"Point","coordinates":[54.3717193,24.4959043]}},{"type":"Feature","id":"node/3048784261","properties":{"bench":"yes","bin":"yes","bus":"yes","highway":"bus_stop","lit":"yes","name":"Hamdan St / Emirates Tower","public_transport":"platform","ref":"525B","shelter":"yes","id":"node/3048784261"},"geometry":{"type":"Point","coordinates":[54.3703238,24.4949978]}},{"type":"Feature","id":"node/3048784262","properties":{"bench":"no","bin":"no","highway":"bus_stop","lit":"yes","name":"samad office emirates","name:en":"samad office emirates - 5, 9, 41, 65","note":"Bus No.s: 05, 54","shelter":"no","id":"node/3048784262"},"geometry":{"type":"Point","coordinates":[54.3692113,24.4941382]}},{"type":"Feature","id":"node/3837356549","properties":{"highway":"bus_stop","name":"94","name:en":"5, 41, 54, 65, 94, 101, 102, 120, 121, 170, 201, 202, 407","id":"node/3837356549"},"geometry":{"type":"Point","coordinates":[54.3657652,24.4912325]}},{"type":"Feature","id":"node/3837356550","properties":{"highway":"bus_stop","id":"node/3837356550"},"geometry":{"type":"Point","coordinates":[54.3619659,24.4886175]}},{"type":"Feature","id":"node/3837356638","properties":{"highway":"bus_stop","name":"94","public_transport":"platform","id":"node/3837356638"},"geometry":{"type":"Point","coordinates":[54.3582798,24.4844181]}},{"type":"Feature","id":"node/3959197907","properties":{"bench":"yes","bin":"yes","highway":"bus_stop","lit":"yes","name":"Madinat Zayed","name:en":"Madinat Zayed","shelter":"yes","id":"node/3959197907"},"geometry":{"type":"Point","coordinates":[54.3668093,24.4837583]}},{"type":"Feature","id":"node/3979070769","properties":{"bench":"no","bin":"no","highway":"bus_stop","lit":"no","name":"Al Markaziya East","name:en":"Al Markaziya East","shelter":"no","id":"node/3979070769"},"geometry":{"type":"Point","coordinates":[54.3602411,24.4910482]}},{"type":"Feature","id":"node/4190025819","properties":{"highway":"bus_stop","name":"medinat zayed Gold Center 33, 34, 54, 55, 56, 94, 110, 111, 155, 160, 300, 404, 405, A2, X5","name:en":"medinat zayed","name:ru":"94","id":"node/4190025819"},"geometry":{"type":"Point","coordinates":[54.3668364,24.4843653]}},{"type":"Feature","id":"node/4279629190","properties":{"bus":"yes","highway":"bus_stop","public_transport":"platform","id":"node/4279629190"},"geometry":{"type":"Point","coordinates":[54.3731273,24.4867458]}},{"type":"Feature","id":"node/4279629490","properties":{"bus":"yes","highway":"bus_stop","name":"010","name:en":"010","public_transport":"platform","id":"node/4279629490"},"geometry":{"type":"Point","coordinates":[54.3754051,24.484108]}},{"type":"Feature","id":"node/4280026889","properties":{"bench":"yes","bin":"no","highway":"bus_stop","lit":"yes","name:signed":"no","shelter":"yes","id":"node/4280026889"},"geometry":{"type":"Point","coordinates":[54.3643891,24.4869282]}},{"type":"Feature","id":"node/4443327192","properties":{"bench":"yes","bin":"yes","bus":"yes","description":"5, 9, 41, 54, 65, 94, 101, 102, 120, 121, 170, 201, 202, 407, A1","highway":"bus_stop","lit":"yes","name":"Hamdan St / Hazaa Bin Zayed Mosque","public_transport":"platform","ref":"529B","shelter":"yes","id":"node/4443327192"},"geometry":{"type":"Point","coordinates":[54.3745997,24.4980614]}},{"type":"Feature","id":"node/4510699097","properties":{"highway":"bus_stop","id":"node/4510699097"},"geometry":{"type":"Point","coordinates":[54.3654984,24.4948694]}},{"type":"Feature","id":"node/4557997392","properties":{"bus":"yes","highway":"bus_stop","public_transport":"platform","id":"node/4557997392"},"geometry":{"type":"Point","coordinates":[54.3767801,24.4837424]}},{"type":"Feature","id":"node/4594262997","properties":{"bench":"yes","bin":"yes","description":"40 63","highway":"bus_stop","lit":"yes","name":"Al marjaziya east","name:en":"Al marjaziya east","shelter":"yes","id":"node/4594262997"},"geometry":{"type":"Point","coordinates":[54.3568191,24.488716]}},{"type":"Feature","id":"node/4642139496","properties":{"bus":"yes","highway":"bus_stop","public_transport":"platform","id":"node/4642139496"},"geometry":{"type":"Point","coordinates":[54.3722256,24.4924481]}},{"type":"Feature","id":"node/4642149793","properties":{"bus":"yes","highway":"bus_stop","name":"Routes 007, 040, 044, 052, 056","name:en":"Routes 007, 040, 044, 052, 056","public_transport":"platform","id":"node/4642149793"},"geometry":{"type":"Point","coordinates":[54.3738679,24.4936312]}},{"type":"Feature","id":"node/4737162091","properties":{"highway":"bus_stop","source":"Kaart Ground Survey 2017","id":"node/4737162091"},"geometry":{"type":"Point","coordinates":[54.3498912,24.487661]}},{"type":"Feature","id":"node/4749303428","properties":{"bus":"yes","highway":"bus_stop","public_transport":"platform","source":"Kaart Ground Survey 2017","id":"node/4749303428"},"geometry":{"type":"Point","coordinates":[54.3654659,24.4994046]}},{"type":"Feature","id":"node/4794738821","properties":{"highway":"bus_stop","id":"node/4794738821"},"geometry":{"type":"Point","coordinates":[54.364314,24.4878442]}},{"type":"Feature","id":"node/4834896634","properties":{"highway":"bus_stop","name:en":"X4, X5, 7, 8, 42, 43, 44, 55, 56, 67","id":"node/4834896634"},"geometry":{"type":"Point","coordinates":[54.3686488,24.4899638]}},{"type":"Feature","id":"node/4878605123","properties":{"highway":"bus_stop","id":"node/4878605123"},"geometry":{"type":"Point","coordinates":[54.3478396,24.4834311]}},{"type":"Feature","id":"node/4878605924","properties":{"highway":"bus_stop","id":"node/4878605924"},"geometry":{"type":"Point","coordinates":[54.3486433,24.4851139]}},{"type":"Feature","id":"node/4949102222","properties":{"bench":"yes","bus":"yes","highway":"bus_stop","public_transport":"platform","shelter":"yes","id":"node/4949102222"},"geometry":{"type":"Point","coordinates":[54.3687927,24.4914033]}},{"type":"Feature","id":"node/5750176021","properties":{"highway":"bus_stop","id":"node/5750176021"},"geometry":{"type":"Point","coordinates":[54.3627582,24.4857847]}},{"type":"Feature","id":"node/6002754288","properties":{"highway":"bus_stop","name":"300, 94","name:en":"Bus stop 300","id":"node/6002754288"},"geometry":{"type":"Point","coordinates":[54.3644829,24.4881096]}},{"type":"Feature","id":"node/6116694286","properties":{"highway":"bus_stop","name":"94","id":"node/6116694286"},"geometry":{"type":"Point","coordinates":[54.3627306,24.4892189]}},{"type":"Feature","id":"node/6116694287","properties":{"bench":"no","bin":"no","highway":"bus_stop","lit":"yes","name":"Emirates tower","shelter":"yes","id":"node/6116694287"},"geometry":{"type":"Point","coordinates":[54.37061,24.4947539]}},{"type":"Feature","id":"node/6116694290","properties":{"bus":"yes","highway":"bus_stop","name":"Hamdan St / Hazaa Bin Zayed Mosque","network":"ITC","operator":"Integrated Transport Centre","public_transport":"platform","ref":"00529A","id":"node/6116694290"},"geometry":{"type":"Point","coordinates":[54.3753299,24.4980779]}},{"type":"Feature","id":"node/6116694291","properties":{"highway":"bus_stop","name":"94","id":"node/6116694291"},"geometry":{"type":"Point","coordinates":[54.3717276,24.4958972]}},{"type":"Feature","id":"node/6116694292","properties":{"bench":"no","bin":"no","bus":"yes","highway":"bus_stop","lit":"yes","name":"Hamdan St / Fatimah Bint Mubarak St","public_transport":"platform","ref":"521B","shelter":"no","id":"node/6116694292"},"geometry":{"type":"Point","coordinates":[54.3667394,24.4924371]}},{"type":"Feature","id":"node/6116694293","properties":{"bench":"yes","highway":"bus_stop","name":"5, 33, 41, 65","shelter":"yes","id":"node/6116694293"},"geometry":{"type":"Point","coordinates":[54.3625296,24.4894444]}},{"type":"Feature","id":"node/6116694294","properties":{"bench":"yes","bin":"yes","highway":"bus_stop","lit":"yes","name":"94","shelter":"yes","id":"node/6116694294"},"geometry":{"type":"Point","coordinates":[54.3612753,24.4885699]}},{"type":"Feature","id":"node/6116694295","properties":{"highway":"bus_stop","name":"94","public_transport":"platform","id":"node/6116694295"},"geometry":{"type":"Point","coordinates":[54.3576108,24.4838971]}},{"type":"Feature","id":"node/6116694485","properties":{"bench":"no","bin":"no","highway":"bus_stop","lit":"yes","name":"94","shelter":"no","id":"node/6116694485"},"geometry":{"type":"Point","coordinates":[54.3648533,24.4910414]}},{"type":"Feature","id":"node/6128514485","properties":{"bus":"yes","highway":"bus_stop","public_transport":"platform","id":"node/6128514485"},"geometry":{"type":"Point","coordinates":[54.3760279,24.4949016]}},{"type":"Feature","id":"node/6137563687","properties":{"bus":"yes","highway":"bus_stop","name":"Sheikh Zayed Bin Sultan St / Hamdan St","public_transport":"platform","ref":"808B","id":"node/6137563687"},"geometry":{"type":"Point","coordinates":[54.3737057,24.4953872]}},{"type":"Feature","id":"node/6137563688","properties":{"bus":"yes","highway":"bus_stop","name":"Sheikh Zayed Bin Sultan St / Al Mawkib St","public_transport":"platform","ref":"810B","id":"node/6137563688"},"geometry":{"type":"Point","coordinates":[54.3761187,24.4924218]}},{"type":"Feature","id":"node/6137564286","properties":{"bus":"yes","highway":"bus_stop","name":"Sheikh Zayed Bin Sultan St / Al Mawkib St","public_transport":"platform","ref":"810A","id":"node/6137564286"},"geometry":{"type":"Point","coordinates":[54.3762767,24.49305]}},{"type":"Feature","id":"node/6137566485","properties":{"bench":"yes","bus":"yes","highway":"bus_stop","name":"Sheikh Zayed Bin Sultan St / Hamdan St","public_transport":"platform","ref":"808A","shelter":"yes","id":"node/6137566485"},"geometry":{"type":"Point","coordinates":[54.3745361,24.4951055]}},{"type":"Feature","id":"node/6193257988","properties":{"highway":"bus_stop","name":"Bus 07 08 34 42 43 44 67 Stop","name:en":"Bus 07 08 34 42 43 44 67 Stop","name:zh":"7路8路34路42路43路44路67路公交车停靠站","id":"node/6193257988"},"geometry":{"type":"Point","coordinates":[54.3614283,24.4848273]}},{"type":"Feature","id":"node/6553156087","properties":{"highway":"bus_stop","name:en":"Ruwais Adnoc Bus","id":"node/6553156087"},"geometry":{"type":"Point","coordinates":[54.3669205,24.4963656]}},{"type":"Feature","id":"node/7095394188","properties":{"bus":"yes","highway":"bus_stop","public_transport":"platform","id":"node/7095394188"},"geometry":{"type":"Point","coordinates":[54.3554053,24.4844433]}},{"type":"Feature","id":"node/7137279085","properties":{"bus":"yes","highway":"bus_stop","name":"Al Marina","public_transport":"platform","id":"node/7137279085"},"geometry":{"type":"Point","coordinates":[54.3552676,24.4842429]}},{"type":"Feature","id":"node/7174539287","properties":{"bench":"yes","bin":"yes","highway":"bus_stop","name:en":"007, 042, 044, 056, 040, 043, 055, 067","shelter":"yes","id":"node/7174539287"},"geometry":{"type":"Point","coordinates":[54.3734436,24.4930292]}},{"type":"Feature","id":"node/7174539485","properties":{"highway":"bus_stop","name:en":"007, 042, 044, 067,","id":"node/7174539485"},"geometry":{"type":"Point","coordinates":[54.3708687,24.4912076]}},{"type":"Feature","id":"node/7220740985","properties":{"highway":"bus_stop","name":"Big bus - red line stop 2","id":"node/7220740985"},"geometry":{"type":"Point","coordinates":[54.364297,24.5003368]}},{"type":"Feature","id":"node/7220741886","properties":{"bench":"yes","bin":"yes","highway":"bus_stop","lit":"yes","name":"Big bus - red line stop 12","shelter":"yes","id":"node/7220741886"},"geometry":{"type":"Point","coordinates":[54.3568592,24.48874]}},{"type":"Feature","id":"node/9463174926","properties":{"bus":"yes","highway":"bus_stop","name:en":"111","public_transport":"platform","shelter":"yes","id":"node/9463174926"},"geometry":{"type":"Point","coordinates":[54.3623258,24.4913427]}},{"type":"Feature","id":"node/9488779517","properties":{"highway":"bus_stop","name:en":"110, 111","id":"node/9488779517"},"geometry":{"type":"Point","coordinates":[54.3621789,24.491078]}},{"type":"Feature","id":"node/9754521017","properties":{"highway":"bus_stop","name:en":"Last stop of A2","id":"node/9754521017"},"geometry":{"type":"Point","coordinates":[54.3684359,24.4990394]}},{"type":"Feature","id":"node/10325385310","properties":{"highway":"bus_stop","name:en":"7, 8, 42, 43, 44, 55, 56, 67","id":"node/10325385310"},"geometry":{"type":"Point","coordinates":[54.3671621,24.4888725]}},{"type":"Feature","id":"node/10328510509","properties":{"highway":"bus_stop","name:en":"A2, 102, 110, 111, 155, 160, 300, 401, 404, 405","shelter":"yes","id":"node/10328510509"},"geometry":{"type":"Point","coordinates":[54.36224,24.4913996]}},{"type":"Feature","id":"node/11527740297","properties":{"bus":"yes","highway":"bus_stop","public_transport":"platform","id":"node/11527740297"},"geometry":{"type":"Point","coordinates":[54.3554607,24.4935393]}},{"type":"Feature","id":"node/11745470183","properties":{"bus":"yes","highway":"bus_stop","public_transport":"platform","id":"node/11745470183"},"geometry":{"type":"Point","coordinates":[54.3643946,24.4944114]}},{"type":"Feature","id":"node/11767954999","properties":{"bus":"yes","highway":"bus_stop","name":"Al Meena St/ Corniche Hospital 1","note":"Bus No.s: 41,43,55,L41,X5,N41,N43","public_transport":"platform","shelter":"no","id":"node/11767954999"},"geometry":{"type":"Point","coordinates":[54.371521,24.5003627]}},{"type":"Feature","id":"node/11918628139","properties":{"bus":"yes","highway":"bus_stop","name":"Hamdan St / Emirates Diplomatic Academy","network":"ITC","operator":"Integrated Transport Centre","public_transport":"platform","ref":"00509A","id":"node/11918628139"},"geometry":{"type":"Point","coordinates":[54.3552332,24.4838582]}},{"type":"Feature","id":"node/11918628141","properties":{"bus":"yes","highway":"bus_stop","name":"Hamdan St / Central Souq","network":"ITC","operator":"Integrated Transport Centre","public_transport":"platform","ref":"00512A","id":"node/11918628141"},"geometry":{"type":"Point","coordinates":[54.3582913,24.4860283]}},{"type":"Feature","id":"node/11918628146","properties":{"bench":"yes","bin":"yes","bus":"yes","highway":"bus_stop","name":"Hamdan St / Liwa Center","network":"ITC","operator":"Integrated Transport Centre","public_transport":"platform","ref":"00513A","shelter":"yes","id":"node/11918628146"},"geometry":{"type":"Point","coordinates":[54.3612507,24.4881148]}},{"type":"Feature","id":"node/11918628147","properties":{"bus":"yes","highway":"bus_stop","name":"Hamdan St / Ministry of Economy","network":"ITC","operator":"Integrated Transport Centre","public_transport":"platform","ref":"00517A","id":"node/11918628147"},"geometry":{"type":"Point","coordinates":[54.3659152,24.4914486]}},{"type":"Feature","id":"node/11918628148","properties":{"bus":"yes","highway":"bus_stop","name":"Hamdan St / Al Mariah Mall","network":"ITC","operator":"Integrated Transport Centre","public_transport":"platform","ref":"00523A","id":"node/11918628148"},"geometry":{"type":"Point","coordinates":[54.3690636,24.4936789]}},{"type":"Feature","id":"node/11918628153","properties":{"bus":"yes","highway":"bus_stop","name":"Hamdan St / Shk. Zayed Bin Sultan St","network":"ITC","operator":"Integrated Transport Centre","public_transport":"platform","ref":"00527A","id":"node/11918628153"},"geometry":{"type":"Point","coordinates":[54.3718818,24.4956704]}},{"type":"Feature","id":"node/11959267618","properties":{"bus":"yes","highway":"bus_stop","name":"Zayed The First St / City Seasons Al Hamra Hotel","network":"ITC","operator":"Integrated Transport Centre","public_transport":"platform","ref":"00740B","id":"node/11959267618"},"geometry":{"type":"Point","coordinates":[54.371482,24.4919647]}},{"type":"Feature","id":"node/11959267621","properties":{"bus":"yes","highway":"bus_stop","name":"Zayed The First St / Lifeline Hospital","network":"ITC","operator":"Integrated Transport Centre","public_transport":"platform","ref":"00734B","id":"node/11959267621"},"geometry":{"type":"Point","coordinates":[54.3665134,24.4884346]}},{"type":"Feature","id":"node/11959267622","properties":{"bus":"yes","highway":"bus_stop","name":"Zayed The First St / NMC Specialty Hospital","network":"ITC","operator":"Integrated Transport Centre","public_transport":"platform","ref":"00730B","id":"node/11959267622"},"geometry":{"type":"Point","coordinates":[54.3618006,24.4851091]}},{"type":"Feature","id":"node/12095579901","properties":{"highway":"bus_stop","id":"node/12095579901"},"geometry":{"type":"Point","coordinates":[54.3725422,24.4862827]}}]}