{"type":"FeatureCollection","features":[{"type":"Feature","id":"way/62281265","properties":{"amenity":"place_of_worship","building":"yes","denomination":"sunni","name":"Sheikh Khalifa Mosque","name:en":"Sheikh Khalifa Mosque","religion":"muslim","source":"Yahoo;local knowledge","id":"way/62281265"},"geometry":{"type":"Polygon","coordinates":[[[54.352488,24.484775],[54.3525745,24.4842592],[54.3533015,24.4843602],[54.353215,24.484876],[54.352488,24.484775]]]}},{"type":"Feature","id":"way/95912087","properties":{"amenity":"place_of_worship","building":"yes","religion":"muslim","id":"way/95912087"},"geometry":{"type":"Polygon","coordinates":[[[54.3544613,24.4887676],[54.3545031,24.4886008],[54.3545327,24.488607],[54.3547777,24.4886575],[54.3546604,24.4888086],[54.3546085,24.4887982],[54.3544613,24.4887676]]]}},{"type":"Feature","id":"way/95912091","properties":{"amenity":"place_of_worship","building":"yes","religion":"muslim","id":"way/95912091"},"geometry":{"type":"Polygon","coordinates":[[[54.3534839,24.4892716],[54.3535321,24.488994],[54.3537136,24.4890201],[54.3536654,24.4892977],[54.3534839,24.4892716]]]}},{"type":"Feature","id":"way/95912116","properties":{"amenity":"place_of_worship","building":"yes","religion":"muslim","source":"Kaart Ground Survey 2017","id":"way/95912116"},"geometry":{"type":"Polygon","coordinates":[[[54.354831,24.4896782],[54.3548504,24.4895294],[54.3550405,24.4895499],[54.355021,24.4896995],[54.3549932,24.4896965],[54.354912,24.4897911],[54.3548235,24.4897282],[54.3548634,24.4896817],[54.354831,24.4896782]]]}},{"type":"Feature","id":"way/120113814","properties":{"addr:city:ar":"أبو ظبي","addr:city:ur":"ابوظہبی","amenity":"place_of_worship","building":"mosque","name":"Masjid Derwish Bin Karam","name:en":"Masjid Derwish Bin Karam","religion":"muslim","source":"Kaart Ground Survey 2017","id":"way/120113814"},"geometry":{"type":"Polygon","coordinates":[[[54.366159,24.4905296],[54.3662131,24.4902775],[54.3664972,24.490328],[54.3664431,24.4905801],[54.366159,24.4905296]]]}},{"type":"Feature","id":"way/121820342","properties":{"amenity":"place_of_worship","building":"yes","religion":"muslim","id":"way/121820342"},"geometry":{"type":"Polygon","coordinates":[[[54.3562736,24.4908674],[54.3563058,24.4906897],[54.3565317,24.4907236],[54.3564994,24.4909013],[54.3562736,24.4908674]]]}},{"type":"Feature","id":"way/121820527","properties":{"amenity":"place_of_worship","building":"yes","religion":"muslim","id":"way/121820527"},"geometry":{"type":"Polygon","coordinates":[[[54.3572666,24.4910343],[54.3572886,24.490903],[54.3573978,24.4909181],[54.3573919,24.4909538],[54.3574345,24.4909597],[54.357424,24.4910224],[54.3573778,24.491016],[54.3573724,24.4910489],[54.3572666,24.4910343]]]}},{"type":"Feature","id":"way/121820793","properties":{"amenity":"place_of_worship","building":"yes","religion":"muslim","id":"way/121820793"},"geometry":{"type":"Polygon","coordinates":[[[54.3595469,24.4900283],[54.3595777,24.4898954],[54.3597268,24.489924],[54.359696,24.4900569],[54.3595469,24.4900283]]]}},{"type":"Feature","id":"way/140647951","properties":{"amenity":"place_of_worship","building":"yes","religion":"muslim","id":"way/140647951"},"geometry":{"type":"Polygon","coordinates":[[[54.3546692,24.4863856],[54.3548211,24.4864096],[54.3547949,24.4865475],[54.354643,24.4865236],[54.3546692,24.4863856]]]}},{"type":"Feature","id":"way/148197436","properties":{"amenity":"place_of_worship","building":"yes","religion":"muslim","id":"way/148197436"},"geometry":{"type":"Polygon","coordinates":[[[54.3635166,24.4945416],[54.3635418,24.4944162],[54.3636465,24.4944286],[54.3636854,24.4944692],[54.3636737,24.4945257],[54.3636291,24.494561],[54.3635166,24.4945416]]]}},{"type":"Feature","id":"way/172959555","properties":{"amenity":"place_of_worship","building":"yes","religion":"muslim","id":"way/172959555"},"geometry":{"type":"Polygon","coordinates":[[[54.3600543,24.4927843],[54.3602,24.4928015],[54.3601933,24.4928485],[54.3601816,24.4929303],[54.3600359,24.4929131],[54.3600543,24.4927843]]]}},{"type":"Feature","id":"way/172961253","properties":{"amenity":"place_of_worship","building":"yes","religion":"muslim","service_times":"Closed due to COVID-19","id":"way/172961253"},"geometry":{"type":"Polygon","coordinates":[[[54.361263,24.4928721],[54.3614201,24.4928951],[54.3613992,24.4930135],[54.3612421,24.4929905],[54.361263,24.4928721]]]}},{"type":"Feature","id":"way/172962019","properties":{"amenity":"place_of_worship","building":"yes","building:levels":"2","religion":"muslim","id":"way/172962019"},"geometry":{"type":"Polygon","coordinates":[[[54.3602273,24.4859609],[54.3603932,24.4859923],[54.3604832,24.4860611],[54.3604643,24.4861004],[54.3604965,24.4861132],[54.3604738,24.4861602],[54.3605848,24.4862044],[54.3605648,24.4862461],[54.3608434,24.4863571],[54.3607823,24.4864841],[54.3607442,24.4864789],[54.3607301,24.4865645],[54.3605877,24.4867251],[54.3602703,24.4866651],[54.3602898,24.4865795],[54.3600946,24.4865426],[54.3602273,24.4859609]]]}},{"type":"Feature","id":"way/177130320","properties":{"amenity":"place_of_worship","building":"mosque","name":"مسجد هامل بن خادم","name:ar":"مسجد هامل بن خادم","name:en":"Hamil bin Khadim Mosque","religion":"muslim","id":"way/177130320"},"geometry":{"type":"Polygon","coordinates":[[[54.3669999,24.4831522],[54.3669663,24.4832772],[54.3669554,24.4833175],[54.3669308,24.483409],[54.3666089,24.4833372],[54.3666356,24.483238],[54.3666217,24.4832349],[54.3666271,24.4832148],[54.3666185,24.4832129],[54.3666271,24.4831812],[54.3666359,24.4831832],[54.3666423,24.4831596],[54.3666569,24.4831629],[54.366679,24.4830807],[54.3668645,24.483122],[54.3669999,24.4831522]]]}},{"type":"Feature","id":"way/177130321","properties":{"amenity":"place_of_worship","building":"mosque","religion":"muslim","id":"way/177130321"},"geometry":{"type":"Polygon","coordinates":[[[54.3638311,24.4848236],[54.3638204,24.484819],[54.3638137,24.4848102],[54.3638129,24.4847995],[54.363818,24.4847899],[54.3638278,24.4847839],[54.3638396,24.4847833],[54.3638566,24.4847024],[54.3639386,24.4847167],[54.363956,24.4846343],[54.3641747,24.4846724],[54.3641165,24.4849488],[54.3640542,24.484938],[54.3640496,24.48496],[54.3638111,24.4849184],[54.3638311,24.4848236]]]}},{"type":"Feature","id":"way/177140273","properties":{"amenity":"place_of_worship","building":"yes","religion":"muslim","id":"way/177140273"},"geometry":{"type":"Polygon","coordinates":[[[54.3694542,24.4889305],[54.369505,24.488698],[54.3697812,24.488748],[54.3697305,24.4889804],[54.3694542,24.4889305]]]}},{"type":"Feature","id":"way/177797690","properties":{"amenity":"place_of_worship","building":"yes","religion":"muslim","id":"way/177797690"},"geometry":{"type":"Polygon","coordinates":[[[54.3702445,24.4926835],[54.3702065,24.4929222],[54.3700548,24.4929022],[54.3700927,24.4926635],[54.3702445,24.4926835]]]}},{"type":"Feature","id":"way/190734231","properties":{"amenity":"place_of_worship","building":"yes","religion":"muslim","id":"way/190734231"},"geometry":{"type":"Polygon","coordinates":[[[54.3690948,24.4963185],[54.3691344,24.4960427],[54.3694352,24.4960785],[54.369422,24.4961705],[54.3694677,24.496176],[54.3694519,24.4962861],[54.3694062,24.4962806],[54.3693956,24.4963543],[54.3690948,24.4963185]]]}},{"type":"Feature","id":"way/200054824","properties":{"amenity":"place_of_worship","building":"mosque","name":"مسجد الشيخ هزاع بن سلطان","name:en":"Mosque Of Sheikh Hazza Bin Sultan","religion":"muslim","id":"way/200054824"},"geometry":{"type":"Polygon","coordinates":[[[54.3753956,24.4978381],[54.3754873,24.4972753],[54.3761961,24.497371],[54.3761043,24.4979338],[54.3753956,24.4978381]]]}},{"type":"Feature","id":"way/206647053","properties":{"amenity":"place_of_worship","building":"yes","religion":"muslim","id":"way/206647053"},"geometry":{"type":"Polygon","coordinates":[[[54.3557307,24.4855324],[54.3559723,24.4855848],[54.3559252,24.4857644],[54.3556837,24.485712],[54.3557307,24.4855324]]]}},{"type":"Feature","id":"way/232754802","properties":{"amenity":"place_of_worship","building":"yes","religion":"muslim","id":"way/232754802"},"geometry":{"type":"Polygon","coordinates":[[[54.3737137,24.49049],[54.3737531,24.4902378],[54.3740848,24.4902807],[54.3740454,24.4905328],[54.3737137,24.49049]]]}},{"type":"Feature","id":"way/232767097","properties":{"amenity":"place_of_worship","building":"yes","religion":"muslim","id":"way/232767097"},"geometry":{"type":"Polygon","coordinates":[[[54.3749838,24.486312],[54.3749554,24.4864887],[54.3748996,24.4864813],[54.3748807,24.486599],[54.3747268,24.4865785],[54.3747359,24.4865217],[54.3747755,24.486527],[54.3748137,24.4862894],[54.3749838,24.486312]]]}},{"type":"Feature","id":"way/232767912","properties":{"amenity":"place_of_worship","building":"yes","name":"Thani Bin Murshid Al Romaithy","religion":"muslim","id":"way/232767912"},"geometry":{"type":"Polygon","coordinates":[[[54.3666609,24.4861565],[54.3667204,24.485884],[54.3671783,24.4859668],[54.3671188,24.4862393],[54.3666609,24.4861565]]]}},{"type":"Feature","id":"way/232769164","properties":{"amenity":"place_of_worship","building":"yes","religion":"muslim","id":"way/232769164"},"geometry":{"type":"Polygon","coordinates":[[[54.3707666,24.4968881],[54.3708229,24.4966384],[54.3710439,24.4966797],[54.3710331,24.4967274],[54.3710644,24.4967332],[54.3710279,24.4968949],[54.3709908,24.4968879],[54.3709817,24.4969284],[54.3707666,24.4968881]]]}},{"type":"Feature","id":"way/296805941","properties":{"amenity":"place_of_worship","building":"yes","religion":"muslim","source":"Kaart Ground Survey 2017","id":"way/296805941"},"geometry":{"type":"Polygon","coordinates":[[[54.3531131,24.4876404],[54.3532615,24.4876669],[54.3532299,24.4878134],[54.3530815,24.4877869],[54.3531131,24.4876404]]]}},{"type":"Feature","id":"way/296820971","properties":{"amenity":"place_of_worship","building":"yes","religion":"muslim","id":"way/296820971"},"geometry":{"type":"Polygon","coordinates":[[[54.3525418,24.4872184],[54.3525729,24.4870888],[54.3527287,24.4871131],[54.352702,24.4872467],[54.3525418,24.4872184]]]}},{"type":"Feature","id":"way/300785217","properties":{"amenity":"place_of_worship","building":"yes","religion":"muslim","id":"way/300785217"},"geometry":{"type":"Polygon","coordinates":[[[54.3715024,24.4937601],[54.3713638,24.4937188],[54.3713964,24.4936283],[54.3713334,24.4936095],[54.3713833,24.4934711],[54.3714873,24.4935021],[54.3715057,24.4934511],[54.3716032,24.4934802],[54.3715024,24.4937601]]]}},{"type":"Feature","id":"way/326537465","properties":{"amenity":"place_of_worship","building":"yes","religion":"muslim","id":"way/326537465"},"geometry":{"type":"Polygon","coordinates":[[[54.3679175,24.4868772],[54.3679423,24.4867419],[54.3681334,24.4867725],[54.3681104,24.486911],[54.3679175,24.4868772]]]}},{"type":"Feature","id":"way/395020133","properties":{"amenity":"place_of_worship","building":"yes","name":"Shareefa Mosque","name:en":"Shareefa Mosque","religion":"muslim","wheelchair":"no","id":"way/395020133"},"geometry":{"type":"Polygon","coordinates":[[[54.3607493,24.4910608],[54.3607105,24.4912718],[54.360573,24.4912509],[54.3606119,24.4910399],[54.3607493,24.4910608]]]}},{"type":"Feature","id":"way/411577289","properties":{"amenity":"place_of_worship","building":"yes","religion":"muslim","id":"way/411577289"},"geometry":{"type":"Polygon","coordinates":[[[54.3709891,24.4865948],[54.3710013,24.4865296],[54.3708926,24.4865127],[54.3709178,24.4863786],[54.3710305,24.4863961],[54.3710433,24.4863278],[54.3711602,24.4863459],[54.3711418,24.486444],[54.3711807,24.4864501],[54.3711637,24.486541],[54.3711233,24.4865347],[54.3711085,24.4866134],[54.3709891,24.4865948]]]}},{"type":"Feature","id":"way/416884128","properties":{"amenity":"place_of_worship","building":"yes","religion":"muslim","id":"way/416884128"},"geometry":{"type":"Polygon","coordinates":[[[54.3682965,24.4878443],[54.3683378,24.4876384],[54.3685841,24.4876794],[54.3685428,24.4878852],[54.3682965,24.4878443]]]}},{"type":"Feature","id":"way/424235390","properties":{"amenity":"place_of_worship","building":"yes","religion":"muslim","id":"way/424235390"},"geometry":{"type":"Polygon","coordinates":[[[54.3694286,24.4846493],[54.3694808,24.4844151],[54.3695947,24.4844361],[54.3695805,24.4845],[54.3696552,24.4845138],[54.3696173,24.4846841],[54.3694286,24.4846493]]]}},{"type":"Feature","id":"way/478461328","properties":{"amenity":"place_of_worship","building":"yes","religion":"muslim","id":"way/478461328"},"geometry":{"type":"Polygon","coordinates":[[[54.3592415,24.492277],[54.3591341,24.4923206],[54.3590851,24.4922282],[54.3591948,24.4921846],[54.3592415,24.492277]]]}},{"type":"Feature","id":"way/482043018","properties":{"amenity":"place_of_worship","building":"yes","religion":"muslim","source":"Kaart Ground Survey 2017","id":"way/482043018"},"geometry":{"type":"Polygon","coordinates":[[[54.3724533,24.4946049],[54.3724666,24.4945325],[54.3725494,24.494531],[54.3725961,24.4943636],[54.3726504,24.4943159],[54.3727785,24.4943524],[54.3728527,24.4944048],[54.3728611,24.4944805],[54.3726384,24.49474],[54.3725599,24.4946863],[54.372564,24.4946418],[54.3724533,24.4946049]]]}},{"type":"Feature","id":"way/482049906","properties":{"amenity":"place_of_worship","building":"mosque","religion":"muslim","source":"Kaart Ground Survey 2017","id":"way/482049906"},"geometry":{"type":"Polygon","coordinates":[[[54.370062,24.4980858],[54.3700723,24.4979547],[54.3702332,24.4979652],[54.3702229,24.4980963],[54.370062,24.4980858]]]}}]}